MEAN_MOTION;ECCENTRICITY;INCLINATION;RA_OF_ASC_NODE;ARG_OF_PERICENTER;MEAN_ANOMALY;BSTAR;MEAN_MOTION_DOT;MEAN_MOTION_DDOT;TYPE
0.98834846;0.0017504;10.7825;309.2121;18.9754;174.7821;0;3.8E-7;0;Intelsat
0.98834932;0.0017484;10.7804;309.199;19.0411;197.3225;0;4.2E-7;0;Intelsat
0.98834954;0.0017477;10.7801;309.1973;19.0499;249.9496;0;4.2E-7;0;Intelsat
0.98835107;0.0017467;10.7786;309.1878;19.1192;169.154;0;3.9E-7;0;Intelsat
0.98835357;0.0017449;10.7767;309.1757;19.1979;166.3404;0;3.1E-7;0;Intelsat
0.98835511;0.0017439;10.7757;309.1696;19.2089;344.9271;0;2.6E-7;0;Intelsat
0.98836069;0.0017434;10.7728;309.1516;19.339;160.6793;0;3.0E-8;0;Intelsat
0.98836247;0.0017431;10.7718;309.1459;19.3678;338.1696;0;-5.0E-8;0;Intelsat
0.98836471;0.0017432;10.7709;309.1398;19.417;157.8462;0;-1.5E-7;0;Intelsat
0.98836937;0.0017429;10.7689;309.1278;19.4987;155.0392;0;-3.4E-7;0;Intelsat
0.98837439;0.0017427;10.7668;309.1152;19.6012;177.6833;0;-5.7E-7;0;Intelsat
0.98837912;0.0017427;10.7648;309.1031;19.6948;174.8633;0;-8.0E-7;0;Intelsat
0.98838125;0.0017421;10.7638;309.097;19.773;353.3288;0;-9.1E-7;0;Intelsat
0.98838353;0.0017423;10.7626;309.09;19.8145;199.9618;0;-1.05E-6;0;Intelsat
0.98838731;0.0017428;10.7606;309.0777;19.9032;205.0305;0;-1.3E-6;0;Intelsat
0.98838904;0.0017426;10.7597;309.0729;19.9571;347.7624;0;-1.4E-6;0;Intelsat
0.98839013;0.0017427;10.7591;309.0691;19.9795;97.3123;0;-1.47E-6;0;Intelsat
0.98839072;0.0017425;10.7587;309.0668;20.0002;166.3592;0;-1.52E-6;0;Intelsat
0.98839195;0.0017424;10.7578;309.0613;20.0689;330.0469;0;-1.63E-6;0;Intelsat
0.9883934;0.0017421;10.7567;309.0547;20.1288;163.4459;0;-1.75E-6;0;Intelsat
0.98839447;0.0017416;10.7557;309.0487;20.2059;341.9753;0;-1.87E-6;0;Intelsat
0.98839549;0.0017413;10.7547;309.0426;20.27;160.5629;0;-1.97E-6;0;Intelsat
0.98839691;0.00174;10.7526;309.0305;20.4143;159.3739;0;-2.16E-6;0;Intelsat
0.98839739;0.0017389;10.7516;309.024;20.4878;351.2465;0;-2.25E-6;0;Intelsat
0.9883977;0.0017384;10.7506;309.0185;20.5635;154.8206;0;-2.32E-6;0;Intelsat
0.98839758;0.0017362;10.7484;309.0056;20.7194;177.4098;0;-2.44E-6;0;Intelsat
0.9883971;0.0017348;10.7474;308.9996;20.7709;355.9733;0;-2.48E-6;0;Intelsat
0.9883971;0.0017348;10.7474;308.9996;20.7709;355.9733;0;-2.48E-6;0;Intelsat
0.98839681;0.0017336;10.7464;308.9937;20.8786;174.5192;0;-2.5E-6;0;Intelsat
0.98839568;0.001732;10.7445;308.9825;20.9936;146.1683;0;-2.52E-6;0;Intelsat
0.98839435;0.0017295;10.7433;308.9757;21.0436;350.2518;0;-2.51E-6;0;Intelsat
0.98839345;0.001729;10.7424;308.9706;21.1365;143.3137;0;-2.49E-6;0;Intelsat
0.98839224;0.0017267;10.7412;308.9637;21.1704;347.3806;0;-2.45E-6;0;Intelsat
0.98839109;0.001726;10.7404;308.9586;21.2657;140.4206;0;-2.41E-6;0;Intelsat
0.98838967;0.0017237;10.7392;308.9517;21.2925;344.5233;0;-2.35E-6;0;Intelsat
0.98838815;0.0017225;10.7382;308.9457;21.3983;163.0442;0;-2.28E-6;0;Intelsat
0.98838326;0.0017171;10.7351;308.9276;21.5273;340.385;0;-2.04E-6;0;Intelsat
0.98838177;0.0017162;10.7342;308.9222;21.6003;138.8145;0;-1.96E-6;0;Intelsat
0.9883779;0.0017126;10.7321;308.91;21.6935;139.0209;0;-1.77E-6;0;Intelsat
0.98837601;0.00171;10.731;308.9034;21.7297;333.1312;0;-1.67E-6;0;Intelsat
0.98837227;0.0017061;10.7289;308.8904;21.829;355.6943;0;-1.46E-6;0;Intelsat
0.98836918;0.0017026;10.727;308.8791;21.9061;327.4651;0;-1.29E-6;0;Intelsat
0.98836906;0.0017028;10.7269;308.8782;21.8996;352.956;0;-1.27E-6;0;Intelsat
0.98836584;0.0017003;10.7249;308.8662;21.9528;350.1631;0;-1.09E-6;0;Intelsat
0.98836321;0.0016981;10.723;308.8551;21.9971;321.8915;0;-9.2E-7;0;Intelsat
0.988363;0.001698;10.7229;308.8542;22.0005;347.3727;0;-9.1E-7;0;Intelsat
0.98836074;0.001696;10.7209;308.8423;22.0442;344.5788;0;-7.3E-7;0;Intelsat
0.98835884;0.001695;10.7189;308.8304;22.0766;341.7852;0;-5.6E-7;0;Intelsat
0.98835742;0.0016936;10.7169;308.8186;22.1312;338.979;0;-3.8E-7;0;Intelsat
0.98835655;0.0016929;10.715;308.8066;22.1819;336.1908;0;-2.1E-7;0;Intelsat
0.98835618;0.0016929;10.7134;308.7974;22.2184;251.3362;0;-9.0E-8;0;Intelsat
0.98835673;0.001691;10.7108;308.782;22.3163;345.1941;0;8.0E-8;0;Intelsat
0.98835783;0.0016903;10.7086;308.7697;22.3907;353.2445;0;1.8E-7;0;Intelsat
0.98835935;0.0016899;10.7066;308.7577;22.4639;350.4161;0;2.2E-7;0;Intelsat
0.98836054;0.0016894;10.7056;308.7516;22.4764;168.8255;0;2.3E-7;0;Intelsat
0.98836168;0.0016889;10.7046;308.7456;22.5532;347.5748;0;2.2E-7;0;Intelsat
0.98836471;0.0016885;10.7025;308.7339;22.6297;332.5266;0;1.6E-7;0;Intelsat
0.98836605;0.0016877;10.7014;308.7272;22.6543;167.516;0;1.0E-7;0;Intelsat
0.98836789;0.001687;10.7006;308.7223;22.7111;312.901;0;5.0E-8;0;Intelsat
0.98836809;0.0016869;10.7004;308.7216;22.7139;335.4925;0;4.0E-8;0;Intelsat
0.98837147;0.0016854;10.6984;308.7096;22.814;328.235;0;-1.2E-7;0;Intelsat
0.98837438;0.0016846;10.6967;308.6999;22.8824;253.7486;0;-2.7E-7;0;Intelsat
0.98837509;0.0016841;10.6963;308.6976;22.9076;322.3062;0;-3.1E-7;0;Intelsat
0.98837961;0.0016821;10.6941;308.6851;23.0112;333.3947;0;-5.6E-7;0;Intelsat
0.98838403;0.0016796;10.6919;308.6722;23.1227;356.0313;0;-8.3E-7;0;Intelsat
0.98838846;0.0016757;10.6898;308.6602;23.2458;353.1277;0;-1.09E-6;0;Intelsat
0.98839256;0.0016727;10.6877;308.6482;23.3518;350.2794;0;-1.36E-6;0;Intelsat
0.98839549;0.00167;10.6861;308.6386;23.4465;271.7427;0;-1.57E-6;0;Intelsat
0.98839615;0.0016693;10.6856;308.6361;23.4556;347.4375;0;-1.62E-6;0;Intelsat
0.98839789;0.0016676;10.6845;308.6296;23.5434;179.9359;0;-1.76E-6;0;Intelsat
0.98839939;0.0016658;10.6835;308.624;23.5515;344.6126;0;-1.87E-6;0;Intelsat
0.98840087;0.0016643;10.6824;308.6176;23.6342;174.4733;0;-1.99E-6;0;Intelsat
0.98840207;0.0016622;10.6815;308.6124;23.6432;330.1959;0;-2.09E-6;0;Intelsat
0.98840383;0.0016582;10.6793;308.5998;23.7357;338.9605;0;-2.3E-6;0;Intelsat
0.98840487;0.0016546;10.6772;308.5877;23.8111;336.1363;0;-2.47E-6;0;Intelsat
0.9884049;0.0016508;10.6752;308.5753;23.8816;336.8824;0;-2.61E-6;0;Intelsat
0.98840328;0.001645;10.672;308.5562;23.9695;174.6458;0;-2.77E-6;0;Intelsat
0.98840237;0.0016433;10.6711;308.5509;23.9878;330.5578;0;-2.79E-6;0;Intelsat
0.98839969;0.0016391;10.6689;308.538;24.0276;350.4843;0;-2.81E-6;0;Intelsat
0.9883983;0.0016381;10.6679;308.5319;24.0388;169.1212;0;-2.8E-6;0;Intelsat
0.98839675;0.0016362;10.667;308.5264;24.0473;332.0936;0;-2.78E-6;0;Intelsat
0.98839655;0.0016359;10.6669;308.5259;24.0518;347.7182;0;-2.78E-6;0;Intelsat
0.98839454;0.0016349;10.6659;308.5198;24.0599;166.3564;0;-2.74E-6;0;Intelsat
0.98839209;0.0016338;10.6647;308.5126;24.0604;21.2374;0;-2.67E-6;0;Intelsat
0.98838798;0.0016319;10.6629;308.5019;24.0725;342.2197;0;-2.53E-6;0;Intelsat
0.98838798;0.0016319;10.6629;308.5019;24.0725;342.2197;0;-2.52E-6;0;Intelsat
0.9883829;0.0016309;10.6608;308.4898;24.0857;339.4676;0;-2.3E-6;0;Intelsat
0.98837835;0.0016296;10.6589;308.4785;24.1035;317.4392;0;-2.05E-6;0;Intelsat
0.98837534;0.0016285;10.6577;308.4718;24.0993;155.3607;0;-1.87E-6;0;Intelsat
0.98837244;0.0016277;10.6567;308.4657;24.1419;333.9273;0;-1.71E-6;0;Intelsat
0.98836768;0.0016271;10.6546;308.4536;24.1699;331.1433;0;-1.37E-6;0;Intelsat
0.98836494;0.0016263;10.6534;308.4466;24.1493;175.2899;0;-1.17E-6;0;Intelsat
0.9883629;0.0016262;10.6525;308.4414;24.2073;328.3751;0;-1.02E-6;0;Intelsat
0.98835856;0.0016247;10.6504;308.4292;24.2561;325.5765;0;-6.9E-7;0;Intelsat
0.98835661;0.0016235;10.6492;308.4221;24.2361;169.7232;0;-5.1E-7;0;Intelsat
0.98835523;0.0016233;10.6483;308.4169;24.3099;322.7623;0;-3.8E-7;0;Intelsat
0.98835349;0.0016219;10.6471;308.4099;24.2956;166.9044;0;-2.3E-7;0;Intelsat
0.9883514;0.0016206;10.645;308.3976;24.3622;164.0856;0;2.0E-8;0;Intelsat
0.98835067;0.0016206;10.6441;308.3923;24.4282;317.1537;0;1.0E-7;0;Intelsat
0.98835009;0.0016192;10.6429;308.3854;24.4368;161.2616;0;2.1E-7;0;Intelsat
0.98834987;0.001618;10.6408;308.3731;24.5118;158.4366;0;3.4E-7;0;Intelsat
0.98835049;0.0016163;10.6387;308.3608;24.5946;155.6008;0;4.3E-7;0;Intelsat
0.98835206;0.0016135;10.6366;308.3485;24.6826;152.7583;0;4.6E-7;0;Intelsat
0.98835496;0.0016106;10.6342;308.335;24.7784;184.7644;0;4.4E-7;0;Intelsat
0.98835808;0.0016074;10.6322;308.3231;24.8594;172.5468;0;3.7E-7;0;Intelsat
0.988362;0.0016026;10.63;308.3109;24.9425;169.7294;0;2.7E-7;0;Intelsat
0.98836639;0.0015989;10.6279;308.2986;25.014;166.8621;0;1.2E-7;0;Intelsat
0.9883687;0.0015967;10.6268;308.2924;25.0239;345.4641;0;3.0E-8;0;Intelsat
0.98837305;0.0015927;10.6249;308.2809;25.0857;317.1685;0;-1.4E-7;0;Intelsat
0.98837797;0.0015886;10.6226;308.2677;25.1383;339.8439;0;-3.8E-7;0;Intelsat
0.98838487;0.0015831;10.6195;308.249;25.2127;155.6743;0;-7.6E-7;0;Intelsat
0.98838892;0.0015794;10.6172;308.2352;25.2371;188.5501;0;-1.05E-6;0;Intelsat
0.98839198;0.0015764;10.6153;308.224;25.2456;150.175;0;-1.31E-6;0;Intelsat
0.98839507;0.0015727;10.6132;308.2107;25.2468;172.9005;0;-1.6E-6;0;Intelsat
0.98839616;0.0015707;10.6122;308.2045;25.2435;351.5425;0;-1.74E-6;0;Intelsat
0.98839707;0.0015696;10.6112;308.1983;25.2364;170.1974;0;-1.86E-6;0;Intelsat
0.98839839;0.0015671;10.6091;308.1859;25.2174;167.47;0;-2.09E-6;0;Intelsat
0.98839872;0.0015661;10.6081;308.1797;25.2083;348.357;0;-2.19E-6;0;Intelsat
0.98839888;0.0015655;10.6071;308.1736;25.196;164.738;0;-2.27E-6;0;Intelsat
0.98839903;0.0015642;10.606;308.1674;25.1848;343.3956;0;-2.34E-6;0;Intelsat
0.98839782;0.0015622;10.603;308.1491;25.15;159.3348;0;-2.47E-6;0;Intelsat
0.9883961;0.001561;10.6009;308.1368;25.1229;156.6189;0;-2.47E-6;0;Intelsat
0.98839387;0.0015597;10.5988;308.1244;25.098;153.9007;0;-2.43E-6;0;Intelsat
0.98839093;0.001559;10.5967;308.112;25.0839;151.1833;0;-2.33E-6;0;Intelsat
0.98838742;0.0015582;10.5945;308.0986;25.0752;173.921;0;-2.19E-6;0;Intelsat
0.98838742;0.0015582;10.5945;308.0986;25.0752;173.921;0;-2.19E-6;0;Intelsat
0.98838373;0.0015573;10.5924;308.0861;25.0835;171.1883;0;-2.02E-6;0;Intelsat
0.98838009;0.0015572;10.5903;308.0735;25.1068;168.4179;0;-1.84E-6;0;Intelsat
0.98837597;0.0015561;10.5881;308.061;25.1331;165.645;0;-1.64E-6;0;Intelsat
0.98837214;0.0015543;10.586;308.0485;25.1664;161.2652;0;-1.43E-6;0;Intelsat
